(Exported by FreeCAD)
(Post Processor: linuxcnc_post)
(Output Time:2023-11-08 19:58:24.912966)
(begin preamble)
G17 G54 G40 G49 G80 G90
G20
(begin operation: G54)
(machine units: in/min)
G54  
(finish operation: G54)
(begin operation: T25: #36)
(machine units: in/min)
(T25: #36) 
M5
M6 T25 
G43 H25 
M3 S2000 
(finish operation: T25: #36)
(begin operation: Drilling)
(machine units: in/min)
(Coolant On:Flood)
M8
(Drilling) 
(Begin Drilling) 
G0 Z0.2500 
G90 
G98 
G0 X1.5481 Y-1.0494 
G0 Z0.1250 
G81 X1.5481 Y-1.0494 Z-0.3200 F4.0000 R0.1250 
G0 X1.2401 Y-1.8400 
G0 Z0.1250 
G81 X1.2401 Y-1.8400 Z-0.3200 F4.0000 R0.1250 
G0 X2.0307 Y-2.1480 
G0 Z0.1250 
G81 X2.0307 Y-2.1480 Z-0.3200 F4.0000 R0.1250 
G0 X2.3388 Y-1.3574 
G0 Z0.1250 
G81 X2.3388 Y-1.3574 Z-0.3200 F4.0000 R0.1250 
G80 
G0 Z0.1250 
G0 Z0.2500 
(finish operation: Drilling)
(Coolant Off:Flood)
M9
(begin operation: T26: 3/16)
(machine units: in/min)
(T26: 3/16) 
M5
M6 T26 
G43 H26 
M3 S5000 
(finish operation: T26: 3/16)
(begin operation: rough-hole)
(machine units: in/min)
(Coolant On:Flood)
M8
(rough-hole) 
(Compensated Tool Path. Diameter: 4.826) 
G0 Z0.2500 
G0 X2.0181 Y-1.3700 
G0 Z0.1250 
G1 X2.0181 Y-1.3700 Z-0.1200 F5.0000 
G2 X2.1084 Y-1.5453 Z-0.1200 I-0.2287 J-0.2287 F12.0000 
G2 X1.4705 Y-1.6521 Z-0.1200 I-0.3190 J-0.0534 F12.0000 
G2 X2.0181 Y-1.3700 Z-0.1200 I0.3190 J0.0534 F12.0000 
G1 X2.0181 Y-1.3700 Z-0.2400 F5.0000 
G2 X2.1084 Y-1.5453 Z-0.2400 I-0.2287 J-0.2287 F12.0000 
G2 X1.4705 Y-1.6521 Z-0.2400 I-0.3190 J-0.0534 F12.0000 
G2 X2.0181 Y-1.3700 Z-0.2400 I0.3190 J0.0534 F12.0000 
G1 X2.0181 Y-1.3700 Z-0.2700 F5.0000 
G2 X2.1084 Y-1.5453 Z-0.2700 I-0.2287 J-0.2287 F12.0000 
G2 X1.4705 Y-1.6521 Z-0.2700 I-0.3190 J-0.0534 F12.0000 
G2 X2.0181 Y-1.3700 Z-0.2700 I0.3190 J0.0534 F12.0000 
G0 Z0.2500 
G0 Z0.2500 
(finish operation: rough-hole)
(Coolant Off:Flood)
M9
(begin operation: finish-hole)
(machine units: in/min)
(Coolant On:Flood)
M8
(finish-hole) 
(Compensated Tool Path. Diameter: 4.826) 
G0 Z0.2500 
G0 X2.0322 Y-1.3559 
G0 Z0.1250 
G1 X2.0322 Y-1.3559 Z-0.1900 F5.0000 
G2 X2.1281 Y-1.5420 Z-0.1900 I-0.2428 J-0.2428 F12.0000 
G2 X1.4507 Y-1.6554 Z-0.1900 I-0.3387 J-0.0567 F12.0000 
G2 X2.0322 Y-1.3559 Z-0.1900 I0.3387 J0.0567 F12.0000 
G1 X2.0322 Y-1.3559 Z-0.2500 F5.0000 
G2 X2.1281 Y-1.5420 Z-0.2500 I-0.2428 J-0.2428 F12.0000 
G2 X1.4507 Y-1.6554 Z-0.2500 I-0.3387 J-0.0567 F12.0000 
G2 X2.0322 Y-1.3559 Z-0.2500 I0.3387 J0.0567 F12.0000 
G0 Z0.2500 
G0 Z0.2500 
(finish operation: finish-hole)
(Coolant Off:Flood)
M9
(begin operation: DressupTag)
(machine units: in/min)
(Coolant On:Flood)
M8
G0 Z0.2500 
G0 X3.1722 Y-0.4150 Z0.2500 
G0 X3.1722 Y-0.4150 Z0.1250 
G1 X3.1722 Y-0.4150 Z-0.1200 F5.0000 
G2 X3.2023 Y-0.4844 Z-0.1200 I-0.0649 J-0.0694 F12.0000 
G1 X3.2023 Y-0.9030 Z-0.1200 F12.0000 
G1 X3.5457 Y-1.0126 Z-0.1200 F12.0000 
G2 X3.6055 Y-1.0690 Z-0.1200 I-0.0289 J-0.0905 F12.0000 
G2 X3.5767 Y-1.1769 Z-0.1200 I-0.0887 J-0.0341 F12.0000 
G1 X3.3161 Y-1.3882 Z-0.1200 F12.0000 
G1 X3.5041 Y-1.7281 Z-0.1200 F12.0000 
G2 X3.4795 Y-1.8489 Z-0.1200 I-0.0831 J-0.0460 F12.0000 
G1 X3.2553 Y-2.0241 Z-0.1200 F12.0000 
G1 X3.3533 Y-2.2902 Z-0.1200 F12.0000 
G2 X3.2828 Y-2.4162 Z-0.1200 I-0.0891 J-0.0328 F12.0000 
G1 X3.0454 Y-2.4637 Z-0.1200 F12.0000 
G1 X3.0825 Y-2.5586 Z-0.1200 F12.0000 
G2 X2.9788 Y-2.6869 Z-0.1200 I-0.0885 J-0.0346 F12.0000 
G1 X2.6738 Y-2.6373 Z-0.1200 F12.0000 
G1 X2.5304 Y-2.9311 Z-0.1200 F12.0000 
G2 X2.5151 Y-2.9536 Z-0.1200 I-0.0854 J0.0417 F12.0000 
G1 X2.3234 Y-3.1628 Z-0.1200 F12.0000 
G2 X2.2060 Y-3.1810 Z-0.1200 I-0.0700 J0.0642 F12.0000 
G1 X1.8463 Y-2.9743 Z-0.1200 F12.0000 
G1 X1.5114 Y-3.1875 Z-0.1200 F12.0000 
G2 X1.3882 Y-3.1691 Z-0.1200 I-0.0510 J0.0801 F12.0000 
G1 X1.2103 Y-2.9615 Z-0.1200 F12.0000 
G1 X0.7789 Y-2.9929 Z-0.1200 F12.0000 
G2 X0.6842 Y-2.8617 Z-0.1200 I-0.0069 J0.0948 F12.0000 
G1 X0.6678 Y-2.8726 Z-0.1200 F12.0000 
G2 X0.5201 Y-2.7936 Z-0.1200 I-0.0527 J0.0790 F12.0000 
G1 X0.5201 Y-2.4848 Z-0.1200 F12.0000 
G1 X-0.0045 Y-2.2066 Z-0.1200 F12.0000 
G2 X-0.0477 Y-2.0862 Z-0.1200 I0.0445 J0.0839 F12.0000 
G1 X0.1996 Y-1.4909 Z-0.1200 F12.0000 
G1 X0.0086 Y-1.3763 Z-0.1200 F12.0000 
G2 X0.0484 Y-1.2002 Z-0.1200 I0.0489 J0.0815 F12.0000 
G1 X0.3966 Y-1.1671 Z-0.1200 F12.0000 
G1 X0.2778 Y-1.0483 Z-0.1200 F12.0000 
G2 X0.3586 Y-0.8871 Z-0.1200 I0.0672 J0.0672 F12.0000 
G1 X0.7190 Y-0.9394 Z-0.1200 F12.0000 
G1 X0.5911 Y-0.6837 Z-0.1200 F12.0000 
G2 X0.6443 Y-0.5518 Z-0.1200 I0.0850 J0.0425 F12.0000 
G1 X0.9912 Y-0.4284 Z-0.1200 F12.0000 
G1 X1.1167 Y-0.0125 Z-0.1200 F12.0000 
G2 X1.2818 Y0.0193 Z-0.1200 I0.0909 J-0.0275 F12.0000 
G1 X1.3758 Y-0.0982 Z-0.1200 F12.0000 
G1 X1.4342 Y-0.0126 Z-0.1200 F12.0000 
G2 X1.5710 Y0.0088 Z-0.1200 I0.0785 J-0.0535 F12.0000 
G1 X1.6539 Y-0.0556 Z-0.1200 F12.0000 
G1 X1.6999 Y0.0019 Z-0.1200 F12.0000 
G2 X1.8239 Y0.0235 Z-0.1200 I0.0742 J-0.0593 F12.0000 
G1 X1.9053 Y-0.0267 Z-0.1200 F12.0000 
G1 X2.1737 Y0.0270 Z-0.1200 F12.0000 
G2 X2.2694 Y-0.0105 Z-0.1200 I0.0186 J-0.0932 F12.0000 
G1 X2.5775 Y-0.4372 Z-0.1200 F12.0000 
G1 X3.0987 Y-0.3898 Z-0.1200 F12.0000 
G2 X3.1722 Y-0.4150 Z-0.1200 I0.0086 J-0.0946 F12.0000 
G1 X3.1722 Y-0.4150 Z-0.2400 F5.0000 
G2 X3.2023 Y-0.4844 Z-0.2400 I-0.0649 J-0.0694 F12.0000 
G1 X3.2023 Y-0.9030 Z-0.2400 F12.0000 
G1 X3.5457 Y-1.0126 Z-0.2400 F12.0000 
G2 X3.6055 Y-1.0690 Z-0.2400 I-0.0289 J-0.0905 F12.0000 
G2 X3.5767 Y-1.1769 Z-0.2400 I-0.0887 J-0.0341 F12.0000 
G1 X3.5272 Y-1.2170 Z-0.2400 F12.0000 
G1 X3.4728 Y-1.2611 Z-0.1700 F8.5000 
G1 X3.4200 Y-1.3039 Z-0.1700 F12.0000 
G1 X3.3656 Y-1.3480 Z-0.2400 F8.5000 
G1 X3.3161 Y-1.3882 Z-0.2400 F12.0000 
G1 X3.5041 Y-1.7281 Z-0.2400 F12.0000 
G2 X3.4795 Y-1.8489 Z-0.2400 I-0.0831 J-0.0460 F12.0000 
G1 X3.2553 Y-2.0241 Z-0.2400 F12.0000 
G1 X3.3533 Y-2.2902 Z-0.2400 F12.0000 
G2 X3.2828 Y-2.4162 Z-0.2400 I-0.0891 J-0.0328 F12.0000 
G1 X3.0454 Y-2.4637 Z-0.2400 F12.0000 
G1 X3.0825 Y-2.5586 Z-0.2400 F12.0000 
G2 X2.9788 Y-2.6869 Z-0.2400 I-0.0885 J-0.0346 F12.0000 
G1 X2.6738 Y-2.6373 Z-0.2400 F12.0000 
G1 X2.5304 Y-2.9311 Z-0.2400 F12.0000 
G2 X2.5151 Y-2.9536 Z-0.2400 I-0.0854 J0.0417 F12.0000 
G1 X2.3234 Y-3.1628 Z-0.2400 F12.0000 
G2 X2.2060 Y-3.1810 Z-0.2400 I-0.0700 J0.0642 F12.0000 
G1 X2.1163 Y-3.1294 Z-0.2400 F12.0000 
G1 X2.0556 Y-3.0946 Z-0.1700 F8.5000 
G1 X1.9967 Y-3.0607 Z-0.1700 F12.0000 
G1 X1.9360 Y-3.0258 Z-0.2400 F8.5000 
G1 X1.8463 Y-2.9743 Z-0.2400 F12.0000 
G1 X1.5114 Y-3.1875 Z-0.2400 F12.0000 
G2 X1.3882 Y-3.1691 Z-0.2400 I-0.0510 J0.0801 F12.0000 
G1 X1.2103 Y-2.9615 Z-0.2400 F12.0000 
G1 X0.7789 Y-2.9929 Z-0.2400 F12.0000 
G2 X0.6842 Y-2.8617 Z-0.2400 I-0.0069 J0.0948 F12.0000 
G1 X0.6678 Y-2.8726 Z-0.2400 F12.0000 
G2 X0.5201 Y-2.7936 Z-0.2400 I-0.0527 J0.0790 F12.0000 
G1 X0.5201 Y-2.4848 Z-0.2400 F12.0000 
G1 X-0.0045 Y-2.2066 Z-0.2400 F12.0000 
G2 X-0.0477 Y-2.0862 Z-0.2400 I0.0445 J0.0839 F12.0000 
G1 X0.0360 Y-1.8846 Z-0.2400 F12.0000 
G1 X0.0629 Y-1.8199 Z-0.1700 F8.5000 
G1 X0.0890 Y-1.7572 Z-0.1700 F12.0000 
G1 X0.1159 Y-1.6925 Z-0.2400 F8.5000 
G1 X0.1996 Y-1.4909 Z-0.2400 F12.0000 
G1 X0.0086 Y-1.3763 Z-0.2400 F12.0000 
G2 X0.0484 Y-1.2002 Z-0.2400 I0.0489 J0.0815 F12.0000 
G1 X0.3966 Y-1.1671 Z-0.2400 F12.0000 
G1 X0.2778 Y-1.0483 Z-0.2400 F12.0000 
G2 X0.3586 Y-0.8871 Z-0.2400 I0.0672 J0.0672 F12.0000 
G1 X0.7190 Y-0.9394 Z-0.2400 F12.0000 
G1 X0.5911 Y-0.6837 Z-0.2400 F12.0000 
G2 X0.6443 Y-0.5518 Z-0.2400 I0.0850 J0.0425 F12.0000 
G1 X0.9912 Y-0.4284 Z-0.2400 F12.0000 
G1 X1.1148 Y-0.0189 Z-0.2400 F12.0000 
G1 X1.1167 Y-0.0125 Z-0.2342 F8.8233 
G1 X1.1232 Y0.0035 Z-0.2190 F8.7852 
G1 X1.1324 Y0.0180 Z-0.2032 F8.6873 
G1 X1.1442 Y0.0307 Z-0.1868 F8.6109 
G1 X1.1580 Y0.0410 Z-0.1700 F8.5547 
G2 X1.2237 Y0.0536 Z-0.1700 I0.0497 J-0.0810 F12.0000 
G1 X1.2339 Y0.0513 Z-0.1803 F8.5476 
G1 X1.2494 Y0.0453 Z-0.1963 F8.5859 
G1 X1.2637 Y0.0367 Z-0.2118 F8.6511 
G1 X1.2762 Y0.0258 Z-0.2268 F8.7358 
G1 X1.2818 Y0.0193 Z-0.2342 F8.8153 
G1 X1.2860 Y0.0141 Z-0.2400 F8.8233 
G1 X1.3758 Y-0.0982 Z-0.2400 F12.0000 
G1 X1.4342 Y-0.0126 Z-0.2400 F12.0000 
G2 X1.5710 Y0.0088 Z-0.2400 I0.0785 J-0.0535 F12.0000 
G1 X1.6539 Y-0.0556 Z-0.2400 F12.0000 
G1 X1.6999 Y0.0019 Z-0.2400 F12.0000 
G2 X1.8239 Y0.0235 Z-0.2400 I0.0742 J-0.0593 F12.0000 
G1 X1.9053 Y-0.0267 Z-0.2400 F12.0000 
G1 X2.1737 Y0.0270 Z-0.2400 F12.0000 
G2 X2.2694 Y-0.0105 Z-0.2400 I0.0186 J-0.0932 F12.0000 
G1 X2.5775 Y-0.4372 Z-0.2400 F12.0000 
G1 X3.0987 Y-0.3898 Z-0.2400 F12.0000 
G2 X3.1722 Y-0.4150 Z-0.2400 I0.0086 J-0.0946 F12.0000 
G1 X3.1722 Y-0.4150 Z-0.2700 F5.0000 
G2 X3.2023 Y-0.4844 Z-0.2700 I-0.0649 J-0.0694 F12.0000 
G1 X3.2023 Y-0.9030 Z-0.2700 F12.0000 
G1 X3.5457 Y-1.0126 Z-0.2700 F12.0000 
G2 X3.6055 Y-1.0690 Z-0.2700 I-0.0289 J-0.0905 F12.0000 
G2 X3.5767 Y-1.1769 Z-0.2700 I-0.0887 J-0.0341 F12.0000 
G1 X3.5505 Y-1.1981 Z-0.2700 F12.0000 
G1 X3.4728 Y-1.2611 Z-0.1700 F8.5000 
G1 X3.4200 Y-1.3039 Z-0.1700 F12.0000 
G1 X3.3423 Y-1.3669 Z-0.2700 F8.5000 
G1 X3.3161 Y-1.3882 Z-0.2700 F12.0000 
G1 X3.5041 Y-1.7281 Z-0.2700 F12.0000 
G2 X3.4795 Y-1.8489 Z-0.2700 I-0.0831 J-0.0460 F12.0000 
G1 X3.2553 Y-2.0241 Z-0.2700 F12.0000 
G1 X3.3533 Y-2.2902 Z-0.2700 F12.0000 
G2 X3.2828 Y-2.4162 Z-0.2700 I-0.0891 J-0.0328 F12.0000 
G1 X3.0454 Y-2.4637 Z-0.2700 F12.0000 
G1 X3.0825 Y-2.5586 Z-0.2700 F12.0000 
G2 X2.9788 Y-2.6869 Z-0.2700 I-0.0885 J-0.0346 F12.0000 
G1 X2.6738 Y-2.6373 Z-0.2700 F12.0000 
G1 X2.5304 Y-2.9311 Z-0.2700 F12.0000 
G2 X2.5151 Y-2.9536 Z-0.2700 I-0.0854 J0.0417 F12.0000 
G1 X2.3234 Y-3.1628 Z-0.2700 F12.0000 
G2 X2.2060 Y-3.1810 Z-0.2700 I-0.0700 J0.0642 F12.0000 
G1 X2.1423 Y-3.1444 Z-0.2700 F12.0000 
G1 X2.0556 Y-3.0946 Z-0.1700 F8.5000 
G1 X1.9967 Y-3.0607 Z-0.1700 F12.0000 
G1 X1.9100 Y-3.0109 Z-0.2700 F8.5000 
G1 X1.8463 Y-2.9743 Z-0.2700 F12.0000 
G1 X1.5114 Y-3.1875 Z-0.2700 F12.0000 
G2 X1.3882 Y-3.1691 Z-0.2700 I-0.0510 J0.0801 F12.0000 
G1 X1.2103 Y-2.9615 Z-0.2700 F12.0000 
G1 X0.7789 Y-2.9929 Z-0.2700 F12.0000 
G2 X0.6842 Y-2.8617 Z-0.2700 I-0.0069 J0.0948 F12.0000 
G1 X0.6678 Y-2.8726 Z-0.2700 F12.0000 
G2 X0.5201 Y-2.7936 Z-0.2700 I-0.0527 J0.0790 F12.0000 
G1 X0.5201 Y-2.4848 Z-0.2700 F12.0000 
G1 X-0.0045 Y-2.2066 Z-0.2700 F12.0000 
G2 X-0.0477 Y-2.0862 Z-0.2700 I0.0445 J0.0839 F12.0000 
G1 X0.0245 Y-1.9123 Z-0.2700 F12.0000 
G1 X0.0629 Y-1.8199 Z-0.1700 F8.5000 
G1 X0.0890 Y-1.7572 Z-0.1700 F12.0000 
G1 X0.1274 Y-1.6648 Z-0.2700 F8.5000 
G1 X0.1996 Y-1.4909 Z-0.2700 F12.0000 
G1 X0.0086 Y-1.3763 Z-0.2700 F12.0000 
G2 X0.0484 Y-1.2002 Z-0.2700 I0.0489 J0.0815 F12.0000 
G1 X0.3966 Y-1.1671 Z-0.2700 F12.0000 
G1 X0.2778 Y-1.0483 Z-0.2700 F12.0000 
G2 X0.3586 Y-0.8871 Z-0.2700 I0.0672 J0.0672 F12.0000 
G1 X0.7190 Y-0.9394 Z-0.2700 F12.0000 
G1 X0.5911 Y-0.6837 Z-0.2700 F12.0000 
G2 X0.6443 Y-0.5518 Z-0.2700 I0.0850 J0.0425 F12.0000 
G1 X0.9912 Y-0.4284 Z-0.2700 F12.0000 
G1 X1.1052 Y-0.0508 Z-0.2700 F12.0000 
G1 X1.1167 Y-0.0125 Z-0.2342 F8.7442 
G1 X1.1232 Y0.0035 Z-0.2190 F8.7852 
G1 X1.1324 Y0.0180 Z-0.2032 F8.6873 
G1 X1.1442 Y0.0307 Z-0.1868 F8.6109 
G1 X1.1580 Y0.0410 Z-0.1700 F8.5547 
G2 X1.2237 Y0.0536 Z-0.1700 I0.0497 J-0.0810 F12.0000 
G1 X1.2339 Y0.0513 Z-0.1803 F8.5476 
G1 X1.2494 Y0.0453 Z-0.1963 F8.5859 
G1 X1.2637 Y0.0367 Z-0.2118 F8.6511 
G1 X1.2762 Y0.0258 Z-0.2268 F8.7358 
G1 X1.2818 Y0.0193 Z-0.2342 F8.8153 
G1 X1.3068 Y-0.0118 Z-0.2700 F8.7442 
G1 X1.3758 Y-0.0982 Z-0.2700 F12.0000 
G1 X1.4342 Y-0.0126 Z-0.2700 F12.0000 
G2 X1.5710 Y0.0088 Z-0.2700 I0.0785 J-0.0535 F12.0000 
G1 X1.6539 Y-0.0556 Z-0.2700 F12.0000 
G1 X1.6999 Y0.0019 Z-0.2700 F12.0000 
G2 X1.8239 Y0.0235 Z-0.2700 I0.0742 J-0.0593 F12.0000 
G1 X1.9053 Y-0.0267 Z-0.2700 F12.0000 
G1 X2.1737 Y0.0270 Z-0.2700 F12.0000 
G2 X2.2694 Y-0.0105 Z-0.2700 I0.0186 J-0.0932 F12.0000 
G1 X2.5775 Y-0.4372 Z-0.2700 F12.0000 
G1 X3.0987 Y-0.3898 Z-0.2700 F12.0000 
G2 X3.1722 Y-0.4150 Z-0.2700 I0.0086 J-0.0946 F12.0000 
G0 X3.1722 Y-0.4150 Z0.2500 
(finish operation: DressupTag)
(Coolant Off:Flood)
M9
(begin postamble)
M05
G17 G54 G90 G80 G40
M2
