(Exported by FreeCAD)
(Post Processor: linuxcnc_post)
(Output Time:2023-11-08 21:30:47.374727)
(begin preamble)
G17 G54 G40 G49 G80 G90
G20
(begin operation: G54)
(machine units: in/min)
G54 
(finish operation: G54)
(begin operation: T2: drill 36)
(machine units: in/min)
(T2: drill 36) 
M5
M6 T25 
G43 H25 
M3 S2000 
(finish operation: T2: drill 36)
(begin operation: Drilling)
(machine units: in/min)
(Coolant On:Flood)
M8
(Drilling) 
(Begin Drilling) 
G0 Z0.1969 
G90 
G98 
G0 X1.0975 Y-0.6380 
G0 Z0.1181 
G83 X1.0975 Y-0.6380 Z-0.3500 F3.0000 Q0.0750 R0.1181 
G0 X0.8410 Y-1.4468 
G0 Z0.1181 
G83 X0.8410 Y-1.4468 Z-0.3500 F3.0000 Q0.0750 R0.1181 
G0 X1.6498 Y-1.7034 
G0 Z0.1181 
G83 X1.6498 Y-1.7034 Z-0.3500 F3.0000 Q0.0750 R0.1181 
G0 X1.9064 Y-0.8945 
G0 Z0.1181 
G83 X1.9064 Y-0.8945 Z-0.3500 F3.0000 Q0.0750 R0.1181 
G80 
G0 Z0.1181 
G0 Z0.1969 
(finish operation: Drilling)
(Coolant Off:Flood)
M9
(begin operation: T1: 3/16)
(machine units: in/min)
(T1: 3/16) 
M5
M6 T26 
G43 H26 
M3 S5000 
(finish operation: T1: 3/16)
(begin operation: rough-hole)
(machine units: in/min)
(Coolant On:Flood)
M8
(Profile) 
(Compensated Tool Path. Diameter: 4.7498) 
G0 Z0.1969 
G0 X1.6036 Y-0.9408 
G0 Z0.1181 
G1 X1.6036 Y-0.9408 Z-0.1000 F3.0000 
G2 X1.6953 Y-1.1229 Z-0.1000 I-0.2299 J-0.2299 F7.0000 
G2 X1.4215 Y-1.4923 Z-0.1000 I-0.3216 J-0.0478 F7.0000 
G2 X1.0520 Y-1.2185 Z-0.1000 I-0.0478 J0.3216 F7.0000 
G2 X1.6036 Y-0.9408 Z-0.1000 I0.3216 J0.0478 F7.0000 
G1 X1.6036 Y-0.9408 Z-0.2000 F3.0000 
G2 X1.6953 Y-1.1229 Z-0.2000 I-0.2299 J-0.2299 F7.0000 
G2 X1.4215 Y-1.4923 Z-0.2000 I-0.3216 J-0.0478 F7.0000 
G2 X1.0520 Y-1.2185 Z-0.2000 I-0.0478 J0.3216 F7.0000 
G2 X1.6036 Y-0.9408 Z-0.2000 I0.3216 J0.0478 F7.0000 
G1 X1.6036 Y-0.9408 Z-0.2700 F3.0000 
G2 X1.6953 Y-1.1229 Z-0.2700 I-0.2299 J-0.2299 F7.0000 
G2 X1.4215 Y-1.4923 Z-0.2700 I-0.3216 J-0.0478 F7.0000 
G2 X1.0520 Y-1.2185 Z-0.2700 I-0.0478 J0.3216 F7.0000 
G2 X1.6036 Y-0.9408 Z-0.2700 I0.3216 J0.0478 F7.0000 
G0 Z0.1969 
G0 Z0.1969 
(finish operation: rough-hole)
(Coolant Off:Flood)
M9
(begin operation: finish-hole)
(machine units: in/min)
(Coolant On:Flood)
M8
(Profile001) 
(Compensated Tool Path. Diameter: 4.7498) 
G0 Z0.1969 
G0 X1.6177 Y-0.9266 
G0 Z0.1181 
G1 X1.6177 Y-0.9266 Z-0.1000 F3.0000 
G2 X1.7151 Y-1.1199 Z-0.1000 I-0.2441 J-0.2441 F7.0000 
G2 X1.4244 Y-1.5121 Z-0.1000 I-0.3414 J-0.0507 F7.0000 
G2 X1.0323 Y-1.2214 Z-0.1000 I-0.0507 J0.3414 F7.0000 
G2 X1.6177 Y-0.9266 Z-0.1000 I0.3414 J0.0507 F7.0000 
G1 X1.6177 Y-0.9266 Z-0.2000 F3.0000 
G2 X1.7151 Y-1.1199 Z-0.2000 I-0.2441 J-0.2441 F7.0000 
G2 X1.4244 Y-1.5121 Z-0.2000 I-0.3414 J-0.0507 F7.0000 
G2 X1.0323 Y-1.2214 Z-0.2000 I-0.0507 J0.3414 F7.0000 
G2 X1.6177 Y-0.9266 Z-0.2000 I0.3414 J0.0507 F7.0000 
G1 X1.6177 Y-0.9266 Z-0.2500 F3.0000 
G2 X1.7151 Y-1.1199 Z-0.2500 I-0.2441 J-0.2441 F7.0000 
G2 X1.4244 Y-1.5121 Z-0.2500 I-0.3414 J-0.0507 F7.0000 
G2 X1.0323 Y-1.2214 Z-0.2500 I-0.0507 J0.3414 F7.0000 
G2 X1.6177 Y-0.9266 Z-0.2500 I0.3414 J0.0507 F7.0000 
G0 Z0.1969 
G0 Z0.1969 
(finish operation: finish-hole)
(Coolant Off:Flood)
M9
(begin operation: DressupTag)
(machine units: in/min)
(Coolant On:Flood)
M8
G0 Z0.1969 
G0 X3.1534 Y-0.5146 Z0.1969 
G0 X3.1534 Y-0.5146 Z0.1181 
G1 X3.1534 Y-0.5146 Z-0.1000 F3.0000 
G2 X3.1735 Y-0.6945 Z-0.1000 I-0.0131 J-0.0926 F7.0000 
G1 X2.4720 Y-0.9614 Z-0.1000 F7.0000 
G1 X2.5337 Y-0.9974 Z-0.1000 F7.0000 
G2 X2.5108 Y-1.1681 Z-0.1000 I-0.0468 J-0.0806 F7.0000 
G1 X2.5927 Y-1.2539 Z-0.1000 F7.0000 
G2 X2.5344 Y-1.4111 Z-0.1000 I-0.0673 J-0.0645 F7.0000 
G1 X2.5888 Y-1.5157 Z-0.1000 F7.0000 
G2 X2.4926 Y-1.6514 Z-0.1000 I-0.0830 J-0.0431 F7.0000 
G2 X2.4263 Y-1.6308 Z-0.1000 I0.0808 J0.3784 F7.0000 
G1 X2.4263 Y-1.8087 Z-0.1000 F7.0000 
G2 X2.2667 Y-1.8748 Z-0.1000 I-0.0935 J-0.0000 F7.0000 
G1 X2.2179 Y-1.8261 Z-0.1000 F7.0000 
G1 X2.1296 Y-2.0204 Z-0.1000 F7.0000 
G2 X1.9621 Y-2.0252 Z-0.1000 I-0.0849 J0.0384 F7.0000 
G1 X1.8555 Y-2.2029 Z-0.1000 F7.0000 
G2 X1.6849 Y-2.1807 Z-0.1000 I-0.0804 J0.0486 F7.0000 
G1 X1.3076 Y-2.6940 Z-0.1000 F7.0000 
G2 X1.2640 Y-2.7266 Z-0.1000 I-0.0753 J0.0554 F7.0000 
G2 X1.1389 Y-2.6333 Z-0.1000 I-0.0318 J0.0879 F7.0000 
G1 X1.1571 Y-2.3162 Z-0.1000 F7.0000 
G1 X0.9003 Y-2.4099 Z-0.1000 F7.0000 
G2 X0.7748 Y-2.3221 Z-0.1000 I-0.0320 J0.0878 F7.0000 
G2 X0.7847 Y-2.2589 Z-0.1000 I0.3558 J-0.0237 F7.0000 
G1 X0.3592 Y-2.3197 Z-0.1000 F7.0000 
G2 X0.3066 Y-2.1423 Z-0.1000 I-0.0132 J0.0926 F7.0000 
G1 X0.4061 Y-2.0961 Z-0.1000 F7.0000 
G2 X0.4059 Y-2.0315 Z-0.1000 I0.0868 J0.0325 F7.0000 
G1 X0.3901 Y-2.0301 Z-0.1000 F7.0000 
G2 X0.3204 Y-1.8866 Z-0.1000 I0.0084 J0.0927 F7.0000 
G1 X0.2915 Y-1.8811 Z-0.1000 F7.0000 
G2 X0.2428 Y-1.7238 Z-0.1000 I0.0174 J0.0916 F7.0000 
G1 X0.1105 Y-1.6961 Z-0.1000 F7.0000 
G2 X0.0855 Y-1.5222 Z-0.1000 I0.0192 J0.0915 F7.0000 
G2 X0.1427 Y-1.5021 Z-0.1000 I0.1401 J-0.3079 F7.0000 
G1 X0.0158 Y-1.4681 Z-0.1000 F7.0000 
G2 X0.0313 Y-1.2847 Z-0.1000 I0.0242 J0.0903 F7.0000 
G1 X0.1644 Y-1.2722 Z-0.1000 F7.0000 
G1 X0.1096 Y-1.2567 Z-0.1000 F7.0000 
G2 X0.0751 Y-1.2386 Z-0.1000 I0.0254 J0.0900 F7.0000 
G2 X0.1352 Y-1.0726 Z-0.1000 I0.0605 J0.0720 F7.0000 
G1 X0.1175 Y-1.0617 Z-0.1000 F7.0000 
G2 X0.1110 Y-0.9069 Z-0.1000 I0.0491 J0.0796 F7.0000 
G1 X0.1944 Y-0.8453 Z-0.1000 F7.0000 
G1 X0.1944 Y-0.3965 Z-0.1000 F7.0000 
G2 X0.3056 Y-0.3047 Z-0.1000 I0.0935 J0.0000 F7.0000 
G1 X0.5243 Y-0.3468 Z-0.1000 F7.0000 
G1 X0.6526 Y-0.1853 Z-0.1000 F7.0000 
G2 X0.7852 Y-0.1713 Z-0.1000 I0.0732 J-0.0582 F7.0000 
G1 X0.8637 Y-0.2358 Z-0.1000 F7.0000 
G1 X1.0520 Y-0.0257 Z-0.1000 F7.0000 
G2 X1.2135 Y-0.0704 Z-0.1000 I0.0696 J-0.0624 F7.0000 
G1 X1.2277 Y-0.1445 Z-0.1000 F7.0000 
G1 X1.3932 Y0.0253 Z-0.1000 F7.0000 
G2 X1.5522 Y-0.0233 Z-0.1000 I0.0670 J-0.0653 F7.0000 
G2 X1.5537 Y-0.0868 Z-0.1000 I-0.3517 J-0.0401 F7.0000 
G1 X1.6817 Y0.0067 Z-0.1000 F7.0000 
G2 X1.8244 Y-0.0360 Z-0.1000 I0.0551 J-0.0755 F7.0000 
G2 X1.8303 Y-0.0918 Z-0.1000 I-0.1155 J-0.0406 F7.0000 
G1 X1.9206 Y-0.0232 Z-0.1000 F7.0000 
G2 X2.0692 Y-0.1141 Z-0.1000 I0.0566 J-0.0744 F7.0000 
G1 X2.0474 Y-0.2363 Z-0.1000 F7.0000 
G1 X2.2786 Y-0.1711 Z-0.1000 F7.0000 
G2 X2.3803 Y-0.3151 Z-0.1000 I0.0254 J-0.0900 F7.0000 
G1 X2.3081 Y-0.4170 Z-0.1000 F7.0000 
G1 X3.1510 Y-0.5143 Z-0.1000 F7.0000 
G2 X3.1534 Y-0.5146 Z-0.1000 I-0.0107 J-0.0929 F7.0000 
G1 X3.1534 Y-0.5146 Z-0.2000 F3.0000 
G2 X3.1735 Y-0.6945 Z-0.2000 I-0.0131 J-0.0926 F7.0000 
G1 X2.4720 Y-0.9614 Z-0.2000 F7.0000 
G1 X2.5337 Y-0.9974 Z-0.2000 F7.0000 
G2 X2.5108 Y-1.1681 Z-0.2000 I-0.0468 J-0.0806 F7.0000 
G1 X2.5927 Y-1.2539 Z-0.2000 F7.0000 
G2 X2.5344 Y-1.4111 Z-0.2000 I-0.0673 J-0.0645 F7.0000 
G1 X2.5888 Y-1.5157 Z-0.2000 F7.0000 
G2 X2.4926 Y-1.6514 Z-0.2000 I-0.0830 J-0.0431 F7.0000 
G2 X2.4263 Y-1.6308 Z-0.2000 I0.0808 J0.3784 F7.0000 
G1 X2.4263 Y-1.8087 Z-0.2000 F7.0000 
G2 X2.2667 Y-1.8748 Z-0.2000 I-0.0935 J-0.0000 F7.0000 
G1 X2.2179 Y-1.8261 Z-0.2000 F7.0000 
G1 X2.1296 Y-2.0204 Z-0.2000 F7.0000 
G2 X1.9621 Y-2.0252 Z-0.2000 I-0.0849 J0.0384 F7.0000 
G1 X1.8555 Y-2.2029 Z-0.2000 F7.0000 
G2 X1.6849 Y-2.1807 Z-0.2000 I-0.0804 J0.0486 F7.0000 
G1 X1.6408 Y-2.2407 Z-0.2000 F7.0000 
G1 X1.6142 Y-2.2769 Z-0.1550 F5.0000 
G1 X1.5670 Y-2.3412 Z-0.1550 F7.0000 
G1 X1.5403 Y-2.3774 Z-0.2000 F5.0000 
G1 X1.4522 Y-2.4973 Z-0.2000 F7.0000 
G1 X1.4255 Y-2.5336 Z-0.1550 F5.0000 
G1 X1.3783 Y-2.5978 Z-0.1550 F7.0000 
G1 X1.3517 Y-2.6340 Z-0.2000 F5.0000 
G1 X1.3076 Y-2.6940 Z-0.2000 F7.0000 
G2 X1.2640 Y-2.7266 Z-0.2000 I-0.0753 J0.0554 F7.0000 
G2 X1.1389 Y-2.6333 Z-0.2000 I-0.0318 J0.0879 F7.0000 
G1 X1.1571 Y-2.3162 Z-0.2000 F7.0000 
G1 X0.9003 Y-2.4099 Z-0.2000 F7.0000 
G2 X0.7748 Y-2.3221 Z-0.2000 I-0.0320 J0.0878 F7.0000 
G2 X0.7847 Y-2.2589 Z-0.2000 I0.3558 J-0.0237 F7.0000 
G1 X0.6560 Y-2.2773 Z-0.2000 F7.0000 
G1 X0.6114 Y-2.2837 Z-0.1550 F5.0000 
G1 X0.5325 Y-2.2949 Z-0.1550 F7.0000 
G1 X0.4880 Y-2.3013 Z-0.2000 F5.0000 
G1 X0.3592 Y-2.3197 Z-0.2000 F7.0000 
G2 X0.3066 Y-2.1423 Z-0.2000 I-0.0132 J0.0926 F7.0000 
G1 X0.4061 Y-2.0961 Z-0.2000 F7.0000 
G2 X0.4059 Y-2.0315 Z-0.2000 I0.0868 J0.0325 F7.0000 
G1 X0.3901 Y-2.0301 Z-0.2000 F7.0000 
G2 X0.3204 Y-1.8866 Z-0.2000 I0.0084 J0.0927 F7.0000 
G1 X0.2915 Y-1.8811 Z-0.2000 F7.0000 
G2 X0.2428 Y-1.7238 Z-0.2000 I0.0174 J0.0916 F7.0000 
G1 X0.1105 Y-1.6961 Z-0.2000 F7.0000 
G2 X0.0855 Y-1.5222 Z-0.2000 I0.0192 J0.0915 F7.0000 
G2 X0.1427 Y-1.5021 Z-0.2000 I0.1401 J-0.3079 F7.0000 
G1 X0.0158 Y-1.4681 Z-0.2000 F7.0000 
G2 X-0.0212 Y-1.4485 Z-0.2000 I0.0242 J0.0903 F7.0000 
G1 X-0.0297 Y-1.4400 Z-0.1891 F5.1258 
G1 X-0.0371 Y-1.4306 Z-0.1780 F5.0908 
G1 X-0.0432 Y-1.4203 Z-0.1666 F5.0618 
G1 X-0.0480 Y-1.4094 Z-0.1550 F5.0385 
G2 X-0.0414 Y-1.3318 Z-0.1550 I0.0880 J0.0316 F7.0000 
G1 X-0.0321 Y-1.3182 Z-0.1709 F5.0419 
G1 X-0.0205 Y-1.3065 Z-0.1864 F5.0769 
G1 X-0.0147 Y-1.3019 Z-0.1932 F5.1103 
G1 X-0.0084 Y-1.2978 Z-0.2000 F5.1335 
G2 X0.0313 Y-1.2847 Z-0.2000 I0.0484 J-0.0800 F7.0000 
G1 X0.1644 Y-1.2722 Z-0.2000 F7.0000 
G1 X0.1096 Y-1.2567 Z-0.2000 F7.0000 
G2 X0.0751 Y-1.2386 Z-0.2000 I0.0254 J0.0900 F7.0000 
G2 X0.1352 Y-1.0726 Z-0.2000 I0.0605 J0.0720 F7.0000 
G1 X0.1175 Y-1.0617 Z-0.2000 F7.0000 
G2 X0.1110 Y-0.9069 Z-0.2000 I0.0491 J0.0796 F7.0000 
G1 X0.1944 Y-0.8453 Z-0.2000 F7.0000 
G1 X0.1944 Y-0.3965 Z-0.2000 F7.0000 
G2 X0.3056 Y-0.3047 Z-0.2000 I0.0935 J0.0000 F7.0000 
G1 X0.5243 Y-0.3468 Z-0.2000 F7.0000 
G1 X0.6526 Y-0.1853 Z-0.2000 F7.0000 
G2 X0.7852 Y-0.1713 Z-0.2000 I0.0732 J-0.0582 F7.0000 
G1 X0.8637 Y-0.2358 Z-0.2000 F7.0000 
G1 X0.9012 Y-0.1939 Z-0.2000 F7.0000 
G1 X0.9312 Y-0.1604 Z-0.1550 F5.0000 
G1 X0.9844 Y-0.1010 Z-0.1550 F7.0000 
G1 X1.0145 Y-0.0675 Z-0.2000 F5.0000 
G1 X1.0520 Y-0.0257 Z-0.2000 F7.0000 
G2 X1.2135 Y-0.0704 Z-0.2000 I0.0696 J-0.0624 F7.0000 
G1 X1.2277 Y-0.1445 Z-0.2000 F7.0000 
G1 X1.3932 Y0.0253 Z-0.2000 F7.0000 
G2 X1.5522 Y-0.0233 Z-0.2000 I0.0670 J-0.0653 F7.0000 
G2 X1.5537 Y-0.0868 Z-0.2000 I-0.3517 J-0.0401 F7.0000 
G1 X1.6817 Y0.0067 Z-0.2000 F7.0000 
G2 X1.8244 Y-0.0360 Z-0.2000 I0.0551 J-0.0755 F7.0000 
G2 X1.8303 Y-0.0918 Z-0.2000 I-0.1155 J-0.0406 F7.0000 
G1 X1.9206 Y-0.0232 Z-0.2000 F7.0000 
G2 X2.0692 Y-0.1141 Z-0.2000 I0.0566 J-0.0744 F7.0000 
G1 X2.0474 Y-0.2363 Z-0.2000 F7.0000 
G1 X2.2786 Y-0.1711 Z-0.2000 F7.0000 
G2 X2.3803 Y-0.3151 Z-0.2000 I0.0254 J-0.0900 F7.0000 
G1 X2.3081 Y-0.4170 Z-0.2000 F7.0000 
G1 X2.6453 Y-0.4559 Z-0.2000 F7.0000 
G1 X2.6900 Y-0.4611 Z-0.1550 F5.0000 
G1 X2.7692 Y-0.4702 Z-0.1550 F7.0000 
G1 X2.8139 Y-0.4754 Z-0.2000 F5.0000 
G1 X3.1510 Y-0.5143 Z-0.2000 F7.0000 
G2 X3.1534 Y-0.5146 Z-0.2000 I-0.0107 J-0.0929 F7.0000 
G1 X3.1534 Y-0.5146 Z-0.2700 F3.0000 
G2 X3.1735 Y-0.6945 Z-0.2700 I-0.0131 J-0.0926 F7.0000 
G1 X2.4720 Y-0.9614 Z-0.2700 F7.0000 
G1 X2.5337 Y-0.9974 Z-0.2700 F7.0000 
G2 X2.5108 Y-1.1681 Z-0.2700 I-0.0468 J-0.0806 F7.0000 
G1 X2.5927 Y-1.2539 Z-0.2700 F7.0000 
G2 X2.5344 Y-1.4111 Z-0.2700 I-0.0673 J-0.0645 F7.0000 
G1 X2.5888 Y-1.5157 Z-0.2700 F7.0000 
G2 X2.4926 Y-1.6514 Z-0.2700 I-0.0830 J-0.0431 F7.0000 
G2 X2.4263 Y-1.6308 Z-0.2700 I0.0808 J0.3784 F7.0000 
G1 X2.4263 Y-1.8087 Z-0.2700 F7.0000 
G2 X2.2667 Y-1.8748 Z-0.2700 I-0.0935 J-0.0000 F7.0000 
G1 X2.2179 Y-1.8261 Z-0.2700 F7.0000 
G1 X2.1296 Y-2.0204 Z-0.2700 F7.0000 
G2 X1.9621 Y-2.0252 Z-0.2700 I-0.0849 J0.0384 F7.0000 
G1 X1.8555 Y-2.2029 Z-0.2700 F7.0000 
G2 X1.7264 Y-2.2347 Z-0.2700 I-0.0804 J0.0486 F7.0000 
G1 X1.7148 Y-2.2264 Z-0.2644 F6.0402 
G1 X1.7105 Y-2.2226 Z-0.2630 F6.4100 
G1 X1.7079 Y-2.2201 Z-0.2624 F6.6037 
G1 X1.7030 Y-2.2146 Z-0.2620 F6.8405 
G1 X1.6966 Y-2.2061 Z-0.2630 F6.7612 
G1 X1.6936 Y-2.2011 Z-0.2643 F6.4132 
G1 X1.6874 Y-2.1882 Z-0.2700 F6.0416 
G2 X1.6849 Y-2.1807 Z-0.2700 I0.0876 J0.0340 F7.0000 
G1 X1.6823 Y-2.1843 Z-0.2700 F7.0000 
G1 X1.6142 Y-2.2769 Z-0.1550 F5.0000 
G1 X1.5670 Y-2.3412 Z-0.1550 F7.0000 
G1 X1.4988 Y-2.4338 Z-0.2700 F5.0000 
G1 X1.4936 Y-2.4409 Z-0.2700 F7.0000 
G1 X1.4255 Y-2.5336 Z-0.1550 F5.0000 
G1 X1.3783 Y-2.5978 Z-0.1550 F7.0000 
G1 X1.3102 Y-2.6904 Z-0.2700 F5.0000 
G1 X1.3076 Y-2.6940 Z-0.2700 F7.0000 
G2 X1.2640 Y-2.7266 Z-0.2700 I-0.0753 J0.0554 F7.0000 
G2 X1.1389 Y-2.6333 Z-0.2700 I-0.0318 J0.0879 F7.0000 
G1 X1.1571 Y-2.3162 Z-0.2700 F7.0000 
G1 X0.9003 Y-2.4099 Z-0.2700 F7.0000 
G2 X0.7748 Y-2.3221 Z-0.2700 I-0.0320 J0.0878 F7.0000 
G2 X0.7847 Y-2.2589 Z-0.2700 I0.3558 J-0.0237 F7.0000 
G1 X0.7253 Y-2.2674 Z-0.2700 F7.0000 
G1 X0.6114 Y-2.2837 Z-0.1550 F5.0000 
G1 X0.5325 Y-2.2949 Z-0.1550 F7.0000 
G1 X0.4187 Y-2.3112 Z-0.2700 F5.0000 
G1 X0.3592 Y-2.3197 Z-0.2700 F7.0000 
G2 X0.3066 Y-2.1423 Z-0.2700 I-0.0132 J0.0926 F7.0000 
G1 X0.4061 Y-2.0961 Z-0.2700 F7.0000 
G2 X0.4059 Y-2.0315 Z-0.2700 I0.0868 J0.0325 F7.0000 
G1 X0.3901 Y-2.0301 Z-0.2700 F7.0000 
G2 X0.3204 Y-1.8866 Z-0.2700 I0.0084 J0.0927 F7.0000 
G1 X0.2915 Y-1.8811 Z-0.2700 F7.0000 
G2 X0.2428 Y-1.7238 Z-0.2700 I0.0174 J0.0916 F7.0000 
G1 X0.1105 Y-1.6961 Z-0.2700 F7.0000 
G2 X0.0855 Y-1.5222 Z-0.2700 I0.0192 J0.0915 F7.0000 
G2 X0.1427 Y-1.5021 Z-0.2700 I0.1401 J-0.3079 F7.0000 
G1 X0.0567 Y-1.4790 Z-0.2700 F7.0000 
G1 X0.0158 Y-1.4681 Z-0.2351 F5.2453 
G1 X0.0010 Y-1.4627 Z-0.2226 F5.2909 
G1 X-0.0051 Y-1.4597 Z-0.2170 F5.2376 
G1 X-0.0183 Y-1.4508 Z-0.2033 F5.1885 
G1 X-0.0234 Y-1.4465 Z-0.1974 F5.1476 
G1 X-0.0342 Y-1.4347 Z-0.1827 F5.1102 
G1 X-0.0379 Y-1.4294 Z-0.1766 F5.0805 
G1 X-0.0436 Y-1.4197 Z-0.1658 F5.0594 
G1 X-0.0480 Y-1.4094 Z-0.1550 F5.0379 
G2 X-0.0414 Y-1.3318 Z-0.1550 I0.0880 J0.0316 F7.0000 
G1 X-0.0321 Y-1.3183 Z-0.1709 F5.0419 
G1 X-0.0205 Y-1.3065 Z-0.1864 F5.0769 
G1 X-0.0071 Y-1.2970 Z-0.2014 F5.1232 
G1 X0.0079 Y-1.2900 Z-0.2157 F5.1813 
G1 X0.0313 Y-1.2847 Z-0.2351 F5.2687 
G1 X0.0734 Y-1.2807 Z-0.2700 F5.2453 
G1 X0.1644 Y-1.2722 Z-0.2700 F7.0000 
G1 X0.1096 Y-1.2567 Z-0.2700 F7.0000 
G2 X0.0751 Y-1.2386 Z-0.2700 I0.0254 J0.0900 F7.0000 
G2 X0.1352 Y-1.0726 Z-0.2700 I0.0605 J0.0720 F7.0000 
G1 X0.1175 Y-1.0617 Z-0.2700 F7.0000 
G2 X0.1110 Y-0.9069 Z-0.2700 I0.0491 J0.0796 F7.0000 
G1 X0.1944 Y-0.8453 Z-0.2700 F7.0000 
G1 X0.1944 Y-0.3965 Z-0.2700 F7.0000 
G2 X0.3056 Y-0.3047 Z-0.2700 I0.0935 J0.0000 F7.0000 
G1 X0.5243 Y-0.3468 Z-0.2700 F7.0000 
G1 X0.6526 Y-0.1853 Z-0.2700 F7.0000 
G2 X0.7852 Y-0.1713 Z-0.2700 I0.0732 J-0.0582 F7.0000 
G1 X0.8188 Y-0.1989 Z-0.2700 F7.0000 
G1 X0.8253 Y-0.2043 Z-0.2667 F6.0507 
G1 X0.8317 Y-0.2095 Z-0.2639 F6.1572 
G1 X0.8480 Y-0.2229 Z-0.2585 F6.3698 
G1 X0.8637 Y-0.2358 Z-0.2562 F6.7111 
G1 X0.9312 Y-0.1604 Z-0.1550 F5.0000 
G1 X0.9844 Y-0.1010 Z-0.1550 F7.0000 
G1 X1.0520 Y-0.0257 Z-0.2562 F5.0000 
G1 X1.0620 Y-0.0161 Z-0.2700 F5.0032 
G2 X1.2135 Y-0.0704 Z-0.2700 I0.0597 J-0.0720 F7.0000 
G1 X1.2277 Y-0.1445 Z-0.2700 F7.0000 
G1 X1.3932 Y0.0253 Z-0.2700 F7.0000 
G2 X1.5522 Y-0.0233 Z-0.2700 I0.0670 J-0.0653 F7.0000 
G2 X1.5537 Y-0.0868 Z-0.2700 I-0.3517 J-0.0401 F7.0000 
G1 X1.6817 Y0.0067 Z-0.2700 F7.0000 
G2 X1.8244 Y-0.0360 Z-0.2700 I0.0551 J-0.0755 F7.0000 
G2 X1.8303 Y-0.0918 Z-0.2700 I-0.1155 J-0.0406 F7.0000 
G1 X1.9206 Y-0.0232 Z-0.2700 F7.0000 
G2 X2.0692 Y-0.1141 Z-0.2700 I0.0566 J-0.0744 F7.0000 
G1 X2.0474 Y-0.2363 Z-0.2700 F7.0000 
G1 X2.2786 Y-0.1711 Z-0.2700 F7.0000 
G2 X2.3803 Y-0.3151 Z-0.2700 I0.0254 J-0.0900 F7.0000 
G1 X2.3081 Y-0.4170 Z-0.2700 F7.0000 
G1 X2.5757 Y-0.4479 Z-0.2700 F7.0000 
G1 X2.6900 Y-0.4611 Z-0.1550 F5.0000 
G1 X2.7692 Y-0.4702 Z-0.1550 F7.0000 
G1 X2.8834 Y-0.4834 Z-0.2700 F5.0000 
G1 X3.1510 Y-0.5143 Z-0.2700 F7.0000 
G2 X3.1534 Y-0.5146 Z-0.2700 I-0.0107 J-0.0929 F7.0000 
G0 X3.1534 Y-0.5146 Z0.1969 
(finish operation: DressupTag)
(Coolant Off:Flood)
M9
(begin postamble)
M05
G17 G54 G90 G80 G40
M2
