N0010 (Filename: VS_vertical_spinner-wedgelet-Lwedgelet-armor-L.ngc)
N0020 (Post processor: Dynatorch.scpost)
N0030 (Date: 11/09/2023)
N0040 G20 (Units: Inches)
N0050 G90
N0060 G17
N0070 (Part: VS_vertical_spinner-wedgelet-Lwedgelet-armor-L)
N0080 (Operation: Inside Offset, holes, T1: Plasma, 0.0591 in kerf)
N0090 G60
N0100 F100
N0110 G00 X1.4926 Y1.6656
N0120 G23
N0130 G04 P0.5
N0140 G02 X1.4838 Y1.6212 I-0.0266 J-0.0178
N0150 G02 X1.4433 Y1.6617 I-0.0000 J0.0405
N0160 G02 X1.4838 Y1.7021 I0.0404 J0.0000
N0170 G02 X1.5242 Y1.6617 I0.0000 J-0.0404
N0180 G02 X1.4838 Y1.6212 I-0.0405 J0.0000
N0190 G02 X1.4749 Y1.6656 I0.0178 J0.0266
N0200 G25
N0210 G00 X2.4926 Y1.6656
N0220 G23
N0230 G04 P0.5
N0240 G02 X2.4838 Y1.6212 I-0.0266 J-0.0178
N0250 G02 X2.4433 Y1.6617 I0.0000 J0.0405
N0260 G02 X2.4838 Y1.7021 I0.0404 J0.0000
N0270 G02 X2.5242 Y1.6617 I0.0000 J-0.0404
N0280 G02 X2.4838 Y1.6212 I-0.0404 J0.0000
N0290 G02 X2.4749 Y1.6656 I0.0178 J0.0266
N0300 G25
N0310 G00 X2.4926 Y0.4615
N0320 G23
N0330 G04 P0.5
N0340 G02 X2.4838 Y0.4171 I-0.0266 J-0.0178
N0350 G02 X2.4433 Y0.4575 I0.0000 J0.0404
N0360 G02 X2.4838 Y0.4980 I0.0404 J0.0000
N0370 G02 X2.5242 Y0.4575 I0.0000 J-0.0405
N0380 G02 X2.4838 Y0.4171 I-0.0404 J0.0000
N0390 G02 X2.4749 Y0.4615 I0.0178 J0.0266
N0400 G25
N0410 G00 X1.4926 Y0.4615
N0420 G23
N0430 G04 P0.5
N0440 G02 X1.4838 Y0.4171 I-0.0266 J-0.0178
N0450 G02 X1.4433 Y0.4575 I-0.0000 J0.0405
N0460 G02 X1.4838 Y0.4980 I0.0404 J0.0000
N0470 G02 X1.5242 Y0.4575 I0.0000 J-0.0405
N0480 G02 X1.4838 Y0.4171 I-0.0405 J0.0000
N0490 G02 X1.4749 Y0.4615 I0.0178 J0.0266
N0500 (Operation: Outside Offset, Sketch075, T1: Plasma, 0.0591 in kerf)
N0510 G25
N0520 G00 X0.9198 Y-0.0935
N0530 G23
N0540 G04 P0.5
N0550 G02 X0.9838 Y-0.0295 I0.0640 J0.0000
N0560 G01 X2.9838 Y-0.0295
N0570 G03 X3.0133 Y0.0000 I0.0000 J0.0295
N0580 G01 X3.0133 Y2.0069
N0590 G03 X2.9838 Y2.0364 I-0.0295 J0.0000
N0600 G01 X0.9838 Y2.0364
N0610 G03 X0.9542 Y2.0069 I0.0000 J-0.0295
N0620 G01 X0.9542 Y1.9382
N0630 G01 X-0.0217 Y0.8833
N0640 G03 X-0.0151 Y0.8378 I0.0217 J-0.0201
N0650 G01 X0.9542 Y0.2600
N0660 G01 X0.9542 Y0.0000
N0670 G02 X0.8902 Y-0.0640 I-0.0640 J0.0000
N0680 G25
N0690 G25
N0700 M30
