N0010 (Filename: wedgelet_armor.ngc)
N0020 (Post processor: Dynatorch.scpost)
N0030 (Date: 11/09/2023)
N0040 G20 (Units: Inches)
N0050 G90
N0060 G17
N0070 (Part: VS_vertical_spinner-wedgelet-Lwedgelet-armor-R)
N0080 (Operation: Inside Offset, holes, T1: Plasma, 0.0591 in kerf)
N0090 G60
N0100 F100
N0110 G00 X1.9473 Y1.3464
N0120 G23
N0130 G04 P0.5
N0140 G02 X1.9300 Y1.3046 I-0.0296 J-0.0122
N0150 G02 X1.8846 Y1.3500 I0.0000 J0.0454
N0160 G02 X1.9300 Y1.3954 I0.0454 J0.0000
N0170 G02 X1.9755 Y1.3500 I0.0000 J-0.0454
N0180 G02 X1.9300 Y1.3046 I-0.0454 J0.0000
N0190 G02 X1.9127 Y1.3464 I0.0122 J0.0296
N0200 G25
N0210 G00 X1.9473 Y0.3464
N0220 G23
N0230 G04 P0.5
N0240 G02 X1.9300 Y0.3045 I-0.0296 J-0.0122
N0250 G02 X1.8846 Y0.3500 I0.0000 J0.0455
N0260 G02 X1.9300 Y0.3954 I0.0454 J0.0000
N0270 G02 X1.9755 Y0.3500 I0.0000 J-0.0455
N0280 G02 X1.9300 Y0.3045 I-0.0454 J0.0000
N0290 G02 X1.9127 Y0.3464 I0.0122 J0.0296
N0300 G25
N0310 G00 X0.4473 Y0.3464
N0320 G23
N0330 G04 P0.5
N0340 G02 X0.4300 Y0.3045 I-0.0296 J-0.0122
N0350 G02 X0.3846 Y0.3500 I0.0000 J0.0455
N0360 G02 X0.4300 Y0.3954 I0.0455 J0.0000
N0370 G02 X0.4755 Y0.3500 I0.0000 J-0.0455
N0380 G02 X0.4300 Y0.3045 I-0.0455 J0.0000
N0390 G02 X0.4127 Y0.3464 I0.0122 J0.0296
N0400 G25
N0410 G00 X0.4473 Y1.3464
N0420 G23
N0430 G04 P0.5
N0440 G02 X0.4300 Y1.3046 I-0.0296 J-0.0122
N0450 G02 X0.3846 Y1.3500 I0.0000 J0.0454
N0460 G02 X0.4300 Y1.3954 I0.0455 J0.0000
N0470 G02 X0.4755 Y1.3500 I0.0000 J-0.0454
N0480 G02 X0.4300 Y1.3046 I-0.0455 J0.0000
N0490 G02 X0.4127 Y1.3464 I0.0122 J0.0296
N0500 (Operation: Outside Offset, Sketch078, T1: Plasma, 0.0591 in kerf)
N0510 G25
N0520 G00 X0.0902 Y1.8201
N0530 G23
N0540 G04 P0.5
N0550 G02 X0.0902 Y1.7296 I-0.0453 J-0.0453
N0560 G01 X0.0000 Y1.7296
N0570 G03 X-0.0296 Y1.7000 I0.0000 J-0.0296
N0580 G01 X-0.0296 Y0.0000
N0590 G03 X0.0000 Y-0.0296 I0.0296 J0.0000
N0600 G01 X2.5000 Y-0.0296
N0610 G03 X2.5296 Y0.0000 I0.0000 J0.0296
N0620 G01 X2.5296 Y1.7000
N0630 G03 X2.5000 Y1.7296 I-0.0296 J0.0000
N0640 G01 X2.1701 Y1.7296
N0650 G01 X1.4484 Y2.7014
N0660 G03 X1.4070 Y2.7075 I-0.0237 J-0.0176
N0670 G01 X0.0902 Y1.7296
N0680 (Part: VS_vertical_spinner-wedgelet-Lwedgelet-armor-L)
N0690 G02 X0.0262 Y1.7935 I0.0000 J0.0640
N0700 (Operation: Inside Offset, holes, T1: Plasma, 0.0591 in kerf)
N0710 G25
N0720 G00 X4.6859 Y1.4433
N0730 G23
N0740 G04 P0.5
N0750 G02 X4.6455 Y1.4838 I0.0000 J0.0405
N0760 G02 X4.6859 Y1.5242 I0.0405 J0.0000
N0770 G02 X4.7264 Y1.4838 I0.0000 J-0.0404
N0780 G02 X4.6859 Y1.4433 I-0.0404 J0.0000
N0790 G25
N0800 G00 X4.6859 Y2.4433
N0810 G23
N0820 G04 P0.5
N0830 G02 X4.6455 Y2.4838 I0.0000 J0.0404
N0840 G02 X4.6859 Y2.5242 I0.0405 J0.0000
N0850 G02 X4.7264 Y2.4838 I0.0000 J-0.0404
N0860 G02 X4.6859 Y2.4433 I-0.0404 J0.0000
N0870 G25
N0880 G00 X3.1859 Y2.4433
N0890 G23
N0900 G04 P0.5
N0910 G02 X3.1455 Y2.4838 I0.0000 J0.0404
N0920 G02 X3.1859 Y2.5242 I0.0404 J0.0000
N0930 G02 X3.2264 Y2.4838 I0.0000 J-0.0404
N0940 G02 X3.1859 Y2.4433 I-0.0404 J0.0000
N0950 G25
N0960 G00 X3.1859 Y1.4433
N0970 G23
N0980 G04 P0.5
N0990 G02 X3.1455 Y1.4838 I0.0000 J0.0405
N1000 G02 X3.1859 Y1.5242 I0.0404 J0.0000
N1010 G02 X3.2264 Y1.4838 I0.0000 J-0.0404
N1020 G02 X3.1859 Y1.4433 I-0.0404 J0.0000
N1030 (Operation: Outside Offset, Sketch076, T1: Plasma, 0.0591 in kerf)
N1040 G25
N1050 G00 X5.3495 Y0.9198
N1060 G23
N1070 G04 P0.5
N1080 G02 X5.2855 Y0.9838 I0.0000 J0.0640
N1090 G01 X5.2855 Y2.9838
N1100 G03 X5.2559 Y3.0133 I-0.0296 J0.0000
N1110 G01 X2.7559 Y3.0133
N1120 G03 X2.7264 Y2.9838 I0.0000 J-0.0296
N1130 G01 X2.7264 Y0.9838
N1140 G03 X2.7559 Y0.9542 I0.0296 J0.0000
N1150 G01 X2.8461 Y0.9542
N1160 G01 X4.1629 Y-0.0237
N1170 G03 X4.2043 Y-0.0176 I0.0176 J0.0237
N1180 G01 X4.9260 Y0.9542
N1190 G01 X5.2559 Y0.9542
N1200 G02 X5.3199 Y0.8902 I0.0000 J-0.0640
N1210 G25
N1220 G25
N1230 M30
