(Exported by FreeCAD)
(Post Processor: linuxcnc_post)
(Output Time:2024-10-31 19:59:46.478642)
(begin preamble)
G17 G54 G40 G49 G80 G90
G20
(begin operation: Fixture)
(machine units: in/min)
G54 
(finish operation: Fixture)
(begin operation: TC: 1/4 Endmill011)
(machine units: in/min)
(TC: 1/4 Endmill011) 
M5
M6 T30 
G43 H30 
(finish operation: TC: 1/4 Endmill011)
(begin operation: Profile005)
(machine units: in/min)
(Coolant On:Flood)
M8
(Profile005) 
(Compensated Tool Path. Diameter: 6.35) 
G0 Z0.1969 
G0 X3.7424 Y0.2424 
G0 Z0.1181 
G1 X3.7424 Y0.2424 Z-0.2000 
G1 X3.9634 Y0.0214 Z-0.2000 
G2 X4.0000 Y-0.0669 Z-0.2000 I-0.0884 J-0.0884 
G1 X4.0000 Y-1.1831 Z-0.2000 
G2 X3.9634 Y-1.2714 Z-0.2000 I-0.1250 J0.0000 
G1 X3.5214 Y-1.7134 Z-0.2000 
G2 X3.4331 Y-1.7500 Z-0.2000 I-0.0884 J0.0884 
G1 X-0.1831 Y-1.7500 Z-0.2000 
G2 X-0.2714 Y-1.7134 Z-0.2000 I0.0000 J0.1250 
G1 X-0.7134 Y-1.2714 Z-0.2000 
G2 X-0.7500 Y-1.1831 Z-0.2000 I0.0884 J0.0884 
G1 X-0.7500 Y-0.0669 Z-0.2000 
G2 X-0.7134 Y0.0214 Z-0.2000 I0.1250 J-0.0000 
G1 X-0.2714 Y0.4634 Z-0.2000 
G2 X-0.1831 Y0.5000 Z-0.2000 I0.0884 J-0.0884 
G1 X3.4331 Y0.5000 Z-0.2000 
G2 X3.5214 Y0.4634 Z-0.2000 I-0.0000 J-0.1250 
G1 X3.7424 Y0.2424 Z-0.2000 
G1 X3.7424 Y0.2424 Z-0.4000 
G1 X3.9634 Y0.0214 Z-0.4000 
G2 X4.0000 Y-0.0669 Z-0.4000 I-0.0884 J-0.0884 
G1 X4.0000 Y-1.1831 Z-0.4000 
G2 X3.9634 Y-1.2714 Z-0.4000 I-0.1250 J0.0000 
G1 X3.5214 Y-1.7134 Z-0.4000 
G2 X3.4331 Y-1.7500 Z-0.4000 I-0.0884 J0.0884 
G1 X-0.1831 Y-1.7500 Z-0.4000 
G2 X-0.2714 Y-1.7134 Z-0.4000 I0.0000 J0.1250 
G1 X-0.7134 Y-1.2714 Z-0.4000 
G2 X-0.7500 Y-1.1831 Z-0.4000 I0.0884 J0.0884 
G1 X-0.7500 Y-0.0669 Z-0.4000 
G2 X-0.7134 Y0.0214 Z-0.4000 I0.1250 J-0.0000 
G1 X-0.2714 Y0.4634 Z-0.4000 
G2 X-0.1831 Y0.5000 Z-0.4000 I0.0884 J-0.0884 
G1 X3.4331 Y0.5000 Z-0.4000 
G2 X3.5214 Y0.4634 Z-0.4000 I-0.0000 J-0.1250 
G1 X3.7424 Y0.2424 Z-0.4000 
G1 X3.7424 Y0.2424 Z-0.6000 
G1 X3.9634 Y0.0214 Z-0.6000 
G2 X4.0000 Y-0.0669 Z-0.6000 I-0.0884 J-0.0884 
G1 X4.0000 Y-1.1831 Z-0.6000 
G2 X3.9634 Y-1.2714 Z-0.6000 I-0.1250 J0.0000 
G1 X3.5214 Y-1.7134 Z-0.6000 
G2 X3.4331 Y-1.7500 Z-0.6000 I-0.0884 J0.0884 
G1 X-0.1831 Y-1.7500 Z-0.6000 
G2 X-0.2714 Y-1.7134 Z-0.6000 I0.0000 J0.1250 
G1 X-0.7134 Y-1.2714 Z-0.6000 
G2 X-0.7500 Y-1.1831 Z-0.6000 I0.0884 J0.0884 
G1 X-0.7500 Y-0.0669 Z-0.6000 
G2 X-0.7134 Y0.0214 Z-0.6000 I0.1250 J-0.0000 
G1 X-0.2714 Y0.4634 Z-0.6000 
G2 X-0.1831 Y0.5000 Z-0.6000 I0.0884 J-0.0884 
G1 X3.4331 Y0.5000 Z-0.6000 
G2 X3.5214 Y0.4634 Z-0.6000 I-0.0000 J-0.1250 
G1 X3.7424 Y0.2424 Z-0.6000 
G1 X3.7424 Y0.2424 Z-0.8000 
G1 X3.9634 Y0.0214 Z-0.8000 
G2 X4.0000 Y-0.0669 Z-0.8000 I-0.0884 J-0.0884 
G1 X4.0000 Y-1.1831 Z-0.8000 
G2 X3.9634 Y-1.2714 Z-0.8000 I-0.1250 J0.0000 
G1 X3.5214 Y-1.7134 Z-0.8000 
G2 X3.4331 Y-1.7500 Z-0.8000 I-0.0884 J0.0884 
G1 X-0.1831 Y-1.7500 Z-0.8000 
G2 X-0.2714 Y-1.7134 Z-0.8000 I0.0000 J0.1250 
G1 X-0.7134 Y-1.2714 Z-0.8000 
G2 X-0.7500 Y-1.1831 Z-0.8000 I0.0884 J0.0884 
G1 X-0.7500 Y-0.0669 Z-0.8000 
G2 X-0.7134 Y0.0214 Z-0.8000 I0.1250 J-0.0000 
G1 X-0.2714 Y0.4634 Z-0.8000 
G2 X-0.1831 Y0.5000 Z-0.8000 I0.0884 J-0.0884 
G1 X3.4331 Y0.5000 Z-0.8000 
G2 X3.5214 Y0.4634 Z-0.8000 I-0.0000 J-0.1250 
G1 X3.7424 Y0.2424 Z-0.8000 
G0 Z0.1969 
G0 Z0.1969 
(finish operation: Profile005)
(Coolant Off:Flood)
M9
(begin postamble)
M05
G17 G54 G90 G80 G40
M2
