(Exported by FreeCAD)
(Post Processor: linuxcnc_post)
(Output Time:2024-10-31 20:00:01.644989)
(begin preamble)
G17 G54 G40 G49 G80 G90
G20
(begin operation: Fixture)
(machine units: in/min)
G54 
(finish operation: Fixture)
(begin operation: TC: 1/4 Endmill009)
(machine units: in/min)
(TC: 1/4 Endmill009) 
M5
M6 T30 
G43 H30 
M3 S10000 
(finish operation: TC: 1/4 Endmill009)
(begin operation: Profile004)
(machine units: in/min)
(Coolant On:Flood)
M8
(Profile004) 
(Compensated Tool Path. Diameter: 6.35) 
G0 Z0.1969 
G0 X3.7500 Y-0.5000 
G0 Z0.1181 
G1 X3.7500 Y-0.5000 Z-0.2000 F10.0000 
G1 X3.7500 Y-1.5000 Z-0.2000 F20.0000 
G1 X0.7500 Y-1.5000 Z-0.2000 F20.0000 
G1 X0.7500 Y-0.5000 Z-0.2000 F20.0000 
G1 X3.7500 Y-0.5000 Z-0.2000 F20.0000 
G1 X3.7500 Y-0.5000 Z-0.4000 F10.0000 
G1 X3.7500 Y-1.5000 Z-0.4000 F20.0000 
G1 X0.7500 Y-1.5000 Z-0.4000 F20.0000 
G1 X0.7500 Y-0.5000 Z-0.4000 F20.0000 
G1 X3.7500 Y-0.5000 Z-0.4000 F20.0000 
G1 X3.7500 Y-0.5000 Z-0.6000 F10.0000 
G1 X3.7500 Y-1.5000 Z-0.6000 F20.0000 
G1 X0.7500 Y-1.5000 Z-0.6000 F20.0000 
G1 X0.7500 Y-0.5000 Z-0.6000 F20.0000 
G1 X3.7500 Y-0.5000 Z-0.6000 F20.0000 
G1 X3.7500 Y-0.5000 Z-0.8000 F10.0000 
G1 X3.7500 Y-1.5000 Z-0.8000 F20.0000 
G1 X0.7500 Y-1.5000 Z-0.8000 F20.0000 
G1 X0.7500 Y-0.5000 Z-0.8000 F20.0000 
G1 X3.7500 Y-0.5000 Z-0.8000 F20.0000 
G0 Z0.1969 
G0 Z0.1969 
(finish operation: Profile004)
(Coolant Off:Flood)
M9
(begin postamble)
M05
G17 G54 G90 G80 G40
M2
